STARLINK-2702           
1 48441U 21040P   26068.52662542  .00009680  00000+0  33854-3 0  9990
2 48441  53.1591 178.9038 0001364  67.1350 292.9794 15.30197658266651
YAM-7                   
1 60504U 24149AN  26068.71799904  .00009009  00000+0  30984-3 0  9997
2 60504  97.3828 149.4631 0001973 296.5121  63.5918 15.30304554 86835
